{"type": "FeatureCollection", "features": [ {"type": "Feature", "properties": {"norad_id": 41335, "name": "SENTINEL-3A", "group": "resource", "lat": 53.10055525946048, "lon": -116.82740794462012, "alt_km": 797.1224699475615, "timestamp": "2025-12-12T11:38:31.073562+00:00", "meta": {"OBJECT_NAME": "SENTINEL-3A", "OBJECT_ID": "2016-011A", "EPOCH": "2025-12-12T04:19:16.444416", "MEAN_MOTION": 14.26730412, "ECCENTRICITY": 9.45e-05, "INCLINATION": 98.6316, "RA_OF_ASC_NODE": 51.1996, "ARG_OF_PERICENTER": 89.9977, "MEAN_ANOMALY": 270.1311, "EPHEMERIS_TYPE": 0, "CLASSIFICATION_TYPE": "U", "NORAD_CAT_ID": 41335, "ELEMENT_SET_NO": 999, "REV_AT_EPOCH": 51139, "BSTAR": 0.00013325, "MEAN_MOTION_DOT": 2.79e-06, "MEAN_MOTION_DDOT": 0}, "tle": {"line1": "1 41335U 16011A   25346.18005144  .00000279  00000+0  13325-3 0  9992", "line2": "2 41335  98.6316  51.1996 0000945  89.9977 270.1311 14.26730412511393"}}, "geometry": {"type": "Point", "coordinates": [-116.82740794462012, 53.10055525946048]}}, {"type": "Feature", "properties": {"norad_id": 41556, "name": "ZIYUAN 3-2 (ZY 3-2)", "group": "resource", "lat": 28.92394405763147, "lon": -115.22306240275931, "alt_km": 501.42916709498513, "timestamp": "2025-12-12T11:38:31.073572+00:00", "meta": {"OBJECT_NAME": "ZIYUAN 3-2 (ZY 3-2)", "OBJECT_ID": "2016-033A", "EPOCH": "2025-12-12T04:40:00.858432", "MEAN_MOTION": 15.21491137, "ECCENTRICITY": 0.0012432, "INCLINATION": 97.4041, "RA_OF_ASC_NODE": 60.3704, "ARG_OF_PERICENTER": 251.07, "MEAN_ANOMALY": 108.9189, "EPHEMERIS_TYPE": 0, "CLASSIFICATION_TYPE": "U", "NORAD_CAT_ID": 41556, "ELEMENT_SET_NO": 999, "REV_AT_EPOCH": 52955, "BSTAR": 0.00047958, "MEAN_MOTION_DOT": 0.00010747, "MEAN_MOTION_DDOT": 0}, "tle": {"line1": "1 41556U 16033A   25346.19445438  .00010747  00000+0  47958-3 0  9996", "line2": "2 41556  97.4041  60.3704 0012432 251.0700 108.9189 15.21491137529551"}}, "geometry": {"type": "Point", "coordinates": [-115.22306240275931, 28.92394405763147]}}, {"type": "Feature", "properties": {"norad_id": 41599, "name": "CARTOSAT-2C", "group": "resource", "lat": 79.8517101619294, "lon": -89.06449328260996, "alt_km": 494.1315618690287, "timestamp": "2025-12-12T11:38:31.073583+00:00", "meta": {"OBJECT_NAME": "CARTOSAT-2C", "OBJECT_ID": "2016-040A", "EPOCH": "2025-12-12T04:53:42.811008", "MEAN_MOTION": 15.19290123, "ECCENTRICITY": 0.0010907, "INCLINATION": 97.4767, "RA_OF_ASC_NODE": 43.4596, "ARG_OF_PERICENTER": 67.2334, "MEAN_ANOMALY": 293.0051, "EPHEMERIS_TYPE": 0, "CLASSIFICATION_TYPE": "U", "NORAD_CAT_ID": 41599, "ELEMENT_SET_NO": 999, "REV_AT_EPOCH": 52532, "BSTAR": 0.00041281, "MEAN_MOTION_DOT": 8.659e-05, "MEAN_MOTION_DDOT": 0}, "tle": {"line1": "1 41599U 16040A   25346.20396772  .00008659  00000+0  41281-3 0  9991", "line2": "2 41599  97.4767  43.4596 0010907  67.2334 293.0051 15.19290123525323"}}, "geometry": {"type": "Point", "coordinates": [-89.06449328260996, 79.8517101619294]}}, {"type": "Feature", "properties": {"norad_id": 41601, "name": "SKYSAT-C1", "group": "resource", "lat": 39.72549122992081, "lon": -150.64126478698313, "alt_km": 466.0898017608406, "timestamp": "2025-12-12T11:38:31.073593+00:00", "meta": {"OBJECT_NAME": "SKYSAT-C1", "OBJECT_ID": "2016-040C", "EPOCH": "2025-12-12T01:37:54.883776", "MEAN_MOTION": 15.32569887, "ECCENTRICITY": 0.0002447, "INCLINATION": 96.983, "RA_OF_ASC_NODE": 23.1193, "ARG_OF_PERICENTER": 16.8765, "MEAN_ANOMALY": 343.2559, "EPHEMERIS_TYPE": 0, "CLASSIFICATION_TYPE": "U", "NORAD_CAT_ID": 41601, "ELEMENT_SET_NO": 999, "REV_AT_EPOCH": 52917, "BSTAR": 0.00044349, "MEAN_MOTION_DOT": 0.00013887, "MEAN_MOTION_DDOT": 0}, "tle": {"line1": "1 41601U 16040C   25346.06799634  .00013887  00000+0  44349-3 0  9990", "line2": "2 41601  96.9830  23.1193 0002447  16.8765 343.2559 15.32569887529177"}}, "geometry": {"type": "Point", "coordinates": [-150.64126478698313, 39.72549122992081]}}, {"type": "Feature", "properties": {"norad_id": 41603, "name": "LAPAN-A3", "group": "resource", "lat": -73.97129972354143, "lon": 9.933877157376477, "alt_km": 474.31003296157087, "timestamp": "2025-12-12T11:38:31.073604+00:00", "meta": {"OBJECT_NAME": "LAPAN-A3", "OBJECT_ID": "2016-040E", "EPOCH": "2025-12-12T05:41:56.029920", "MEAN_MOTION": 15.31544358, "ECCENTRICITY": 0.0009718, "INCLINATION": 97.1433, "RA_OF_ASC_NODE": 343.8119, "ARG_OF_PERICENTER": 335.9408, "MEAN_ANOMALY": 24.1379, "EPHEMERIS_TYPE": 0, "CLASSIFICATION_TYPE": "U", "NORAD_CAT_ID": 41603, "ELEMENT_SET_NO": 999, "REV_AT_EPOCH": 52618, "BSTAR": 0.00020549, "MEAN_MOTION_DOT": 6.193e-05, "MEAN_MOTION_DDOT": 0}, "tle": {"line1": "1 41603U 16040E   25346.23745405  .00006193  00000+0  20549-3 0  9996", "line2": "2 41603  97.1433 343.8119 0009718 335.9408  24.1379 15.31544358526186"}}, "geometry": {"type": "Point", "coordinates": [9.933877157376477, -73.97129972354143]}}, {"type": "Feature", "properties": {"norad_id": 41604, "name": "BIROS", "group": "resource", "lat": 53.6000513215467, "lon": 8.215812261687407, "alt_km": 298.7503188674418, "timestamp": "2025-12-12T11:38:31.073614+00:00", "meta": {"OBJECT_NAME": "BIROS", "OBJECT_ID": "2016-040F", "EPOCH": "2025-12-12T02:20:56.988384", "MEAN_MOTION": 15.89451278, "ECCENTRICITY": 0.0003301, "INCLINATION": 97.07, "RA_OF_ASC_NODE": 17.5048, "ARG_OF_PERICENTER": 153.1943, "MEAN_ANOMALY": 206.9502, "EPHEMERIS_TYPE": 0, "CLASSIFICATION_TYPE": "U", "NORAD_CAT_ID": 41604, "ELEMENT_SET_NO": 999, "REV_AT_EPOCH": 52862, "BSTAR": 0.0006906, "MEAN_MOTION_DOT": 0.00199195, "MEAN_MOTION_DDOT": 1.6198e-05}, "tle": {"line1": "1 41604U 16040F   25346.09788181  .00199195  16198-4  69060-3 0  9995", "line2": "2 41604  97.0700  17.5048 0003301 153.1943 206.9502 15.89451278528625"}}, "geometry": {"type": "Point", "coordinates": [8.215812261687407, 53.6000513215467]}}, {"type": "Feature", "properties": {"norad_id": 41727, "name": "GAOFEN-3", "group": "resource", "lat": 35.89722576300059, "lon": 178.21773470062462, "alt_km": 748.565910598817, "timestamp": "2025-12-12T11:38:31.073624+00:00", "meta": {"OBJECT_NAME": "GAOFEN-3", "OBJECT_ID": "2016-049A", "EPOCH": "2025-12-12T05:59:00.363264", "MEAN_MOTION": 14.42213277, "ECCENTRICITY": 0.0001445, "INCLINATION": 98.4042, "RA_OF_ASC_NODE": 351.8428, "ARG_OF_PERICENTER": 61.9079, "MEAN_ANOMALY": 298.2256, "EPHEMERIS_TYPE": 0, "CLASSIFICATION_TYPE": "U", "NORAD_CAT_ID": 41727, "ELEMENT_SET_NO": 999, "REV_AT_EPOCH": 49170, "BSTAR": 4.935e-05, "MEAN_MOTION_DOT": 1.19e-06, "MEAN_MOTION_DDOT": 0}, "tle": {"line1": "1 41727U 16049A   25346.24930976  .00000119  00000+0  49350-4 0  9996", "line2": "2 41727  98.4042 351.8428 0001445  61.9079 298.2256 14.42213277491705"}}, "geometry": {"type": "Point", "coordinates": [178.21773470062462, 35.89722576300059]}}, {"type": "Feature", "properties": {"norad_id": 41771, "name": "SKYSAT-C4", "group": "resource", "lat": 65.18609685107246, "lon": -3.585253417861959, "alt_km": 432.79898156967283, "timestamp": "2025-12-12T11:38:31.073634+00:00", "meta": {"OBJECT_NAME": "SKYSAT-C4", "OBJECT_ID": "2016-058B", "EPOCH": "2025-12-12T00:27:20.747232", "MEAN_MOTION": 15.42215688, "ECCENTRICITY": 0.0001466, "INCLINATION": 96.9379, "RA_OF_ASC_NODE": 11.2413, "ARG_OF_PERICENTER": 133.9929, "MEAN_ANOMALY": 226.1441, "EPHEMERIS_TYPE": 0, "CLASSIFICATION_TYPE": "U", "NORAD_CAT_ID": 41771, "ELEMENT_SET_NO": 999, "REV_AT_EPOCH": 51656, "BSTAR": 0.00046677, "MEAN_MOTION_DOT": 0.00019985, "MEAN_MOTION_DDOT": 0}, "tle": {"line1": "1 41771U 16058B   25346.01899013  .00019985  00000+0  46677-3 0  9995", "line2": "2 41771  96.9379  11.2413 0001466 133.9929 226.1441 15.42215688516565"}}, "geometry": {"type": "Point", "coordinates": [-3.585253417861959, 65.18609685107246]}}, {"type": "Feature", "properties": {"norad_id": 41772, "name": "SKYSAT-C5", "group": "resource", "lat": -14.118652681727573, "lon": 32.03947404816153, "alt_km": 465.8792347262979, "timestamp": "2025-12-12T11:38:31.073645+00:00", "meta": {"OBJECT_NAME": "SKYSAT-C5", "OBJECT_ID": "2016-058C", "EPOCH": "2025-12-11T13:47:56.889600", "MEAN_MOTION": 15.34906129, "ECCENTRICITY": 4.67e-05, "INCLINATION": 97.0751, "RA_OF_ASC_NODE": 29.3759, "ARG_OF_PERICENTER": 257.3192, "MEAN_ANOMALY": 102.8, "EPHEMERIS_TYPE": 0, "CLASSIFICATION_TYPE": "U", "NORAD_CAT_ID": 41772, "ELEMENT_SET_NO": 999, "REV_AT_EPOCH": 51498, "BSTAR": 0.00046261, "MEAN_MOTION_DOT": 0.00015598, "MEAN_MOTION_DDOT": 0}, "tle": {"line1": "1 41772U 16058C   25345.57496400  .00015598  00000+0  46261-3 0  9994", "line2": "2 41772  97.0751  29.3759 0000467 257.3192 102.8000 15.34906129514981"}}, "geometry": {"type": "Point", "coordinates": [32.03947404816153, -14.118652681727573]}}, {"type": "Feature", "properties": {"norad_id": 41773, "name": "SKYSAT-C2", "group": "resource", "lat": -4.668735958836047, "lon": 11.600613420808035, "alt_km": 455.63667881584934, "timestamp": "2025-12-12T11:38:31.073654+00:00", "meta": {"OBJECT_NAME": "SKYSAT-C2", "OBJECT_ID": "2016-058D", "EPOCH": "2025-12-12T00:43:35.830848", "MEAN_MOTION": 15.37243964, "ECCENTRICITY": 0.0004321, "INCLINATION": 97.0369, "RA_OF_ASC_NODE": 10.587, "ARG_OF_PERICENTER": 36.2464, "MEAN_ANOMALY": 323.9073, "EPHEMERIS_TYPE": 0, "CLASSIFICATION_TYPE": "U", "NORAD_CAT_ID": 41773, "ELEMENT_SET_NO": 999, "REV_AT_EPOCH": 51625, "BSTAR": 0.00047659, "MEAN_MOTION_DOT": 0.00017332, "MEAN_MOTION_DDOT": 0}, "tle": {"line1": "1 41773U 16058D   25346.03027582  .00017332  00000+0  47659-3 0  9998", "line2": "2 41773  97.0369  10.5870 0004321  36.2464 323.9073 15.37243964516254"}}, "geometry": {"type": "Point", "coordinates": [11.600613420808035, -4.668735958836047]}}]}